1 08820U 76039A   03236.69972815  .00000008  00000-0  10000-3 0  9570
2 08820 109.8077 205.0438 0044526 286.6339  72.9359  6.38664454381432
